NORAD_CAT_ID,OBJECT_NAME,OBJECT_TYPE,EPOCH,MEAN_MOTION,ECCENTRICITY,INCLINATION,RA_OF_ASC_NODE,ARG_OF_PERICENTER,MEAN_ANOMALY,BSTAR,MEAN_MOTION_DOT,MEAN_MOTION_DDOT,TLE_LINE0,TLE_LINE1,TLE_LINE2,SEMIMAJOR_AXIS,PERIOD,APOGEE,PERIGEE,DECAYED
53859.0,STARLINK-4790,PAYLOAD,2023-01-03 05:28:32,15.08837307,0.0001903,53.2184,102.8981,43.776,316.3383,0.00012463,1.696e-05,0.0,0 STARLINK-4790,1 53859U 22114AT  23003.22814886  .00001696  00000-0  12463-3 0  9998,2 53859  53.2184 102.8981 0001903  43.7760 316.3383 15.08837307 17168,6917.889,95.438,541.07,538.437,0.0
53859.0,STARLINK-4790,PAYLOAD,2023-01-03 13:25:28,15.08825431,0.0001733,53.2181,101.411,41.4352,318.6771,0.00018916,2.723e-05,0.0,0 STARLINK-4790,1 53859U 22114AT  23003.55935771  .00002723  00000-0  18916-3 0  9992,2 53859  53.2181 101.4110 0001733  41.4352 318.6771 15.08825431 17214,6917.925,95.438,540.989,538.591,0.0
53859.0,STARLINK-4790,PAYLOAD,2023-01-04 13:16:15,15.08842504,0.0001749,53.2194,96.955,47.9452,312.1688,7.4101e-05,8.92e-06,0.0,0 STARLINK-4790,1 53859U 22114AT  23004.55295510  .00000892  00000-0  74101-4 0  9997,2 53859  53.2194  96.9550 0001749  47.9452 312.1688 15.08842504 17365,6917.873000000001,95.437,540.948,538.528,0.0
53859.0,STARLINK-4790,PAYLOAD,2023-01-04 22:48:33,15.08854169,0.0001739,53.2186,95.1685,44.9547,315.1586,0.00015117,2.12e-05,0.0,0 STARLINK-4790,1 53859U 22114AT  23004.95038428  .00002120  00000-0  15117-3 0  9991,2 53859  53.2186  95.1685 0001739  44.9547 315.1586 15.08854169 17424,6917.837,95.437,540.905,538.499,0.0
53859.0,STARLINK-4790,PAYLOAD,2023-01-05 08:20:50,15.08863473,0.0001786999999999,53.2185,93.3821,37.3363,322.7753,0.00027045,4.021e-05,0.0,0 STARLINK-4790,1 53859U 22114AT  23005.34781121  .00004021  00000-0  27045-3 0  9995,2 53859  53.2185  93.3821 0001787  37.3363 322.7753 15.08863473 17484,6917.809,95.436,540.91,538.437,0.0
53859.0,STARLINK-4790,PAYLOAD,2023-01-05 14:42:23,15.08856496,0.0001445,53.2204,92.1946,28.7729,331.3342,0.00024589,3.629e-05,0.0,0 STARLINK-4790,1 53859U 22114AT  23005.61277169  .00003629  00000-0  24589-3 0  9990,2 53859  53.2204  92.1946 0001445  28.7729 331.3342 15.08856496 18064,6917.83,95.437,540.695,538.695,0.0
53859.0,STARLINK-4790,PAYLOAD,2023-01-06 06:36:15,15.08848618,0.0001689,53.2184,89.2185,47.8801,312.2334,-2.0494e-05,-6.14e-06,0.0,0 STARLINK-4790,1 53859U 22114AT  23006.27518410 -.00000614  00000-0 -20494-4 0  9995,2 53859  53.2184  89.2185 0001689  47.8801 312.2334 15.08848618 17623,6917.854,95.437,540.887,538.5509999999998,0.0
53859.0,STARLINK-4790,PAYLOAD,2023-01-07 04:51:39,15.08846202,0.0001684,53.2201,85.0549,49.2849,310.829,-0.00012999,-2.357e-05,0.0,0 STARLINK-4790,1 53859U 22114AT  23007.20254550 -.00002357  00000-0 -12999-3 0  9997,2 53859  53.2201  85.0549 0001684  49.2849 310.8290 15.08846202 18302,6917.861,95.437,540.891,538.561,0.0
53859.0,STARLINK-4790,PAYLOAD,2023-01-07 11:13:12,15.0884931,0.0001721999999999,53.2202,83.8634,43.74100000000001,316.3719,-9.4191e-05,-1.787e-05,0.0,0 STARLINK-4790,1 53859U 22114AT  23007.46750255 -.00001787  00000-0 -94191-4 0  9999,2 53859  53.2202  83.8634 0001722  43.7410 316.3719 15.08849310 17804,6917.852,95.437,540.908,538.526,0.0
53859.0,STARLINK-4790,PAYLOAD,2023-01-07 14:23:58,15.08848235,0.0001156,53.2187,83.2678,52.6518,307.458,-7.1069e-05,-1.419e-05,0.0,0 STARLINK-4790,1 53859U 22114AT  23007.59998076 -.00001419  00000-0 -71069-4 0  9999,2 53859  53.2187  83.2678 0001156  52.6518 307.4580 15.08848235 18361,6917.855,95.437,540.52,538.9209999999998,0.0
53859.0,STARLINK-4790,PAYLOAD,2023-01-08 04:42:28,15.08812731,0.0002177,53.2187,80.5978,30.34800000000001,329.7638,8.755899999999999e-05,1.105e-05,0.0,0 STARLINK-4790,1 53859U 22114AT  23008.19616416  .00001105  00000-0  87559-4 0  9992,2 53859  53.2187  80.5978 0002177  30.3480 329.7638 15.08812731 17912,6917.964,95.439,541.335,538.323,0.0
53859.0,STARLINK-4790,PAYLOAD,2023-01-08 11:04:00,15.08823672,0.000213,53.2184,79.4067,42.4662,317.6495,0.00013094,1.795e-05,0.0,0 STARLINK-4790,1 53859U 22114AT  23008.46112058  .00001795  00000-0  13094-3 0  9992,2 53859  53.2184  79.4067 0002130  42.4662 317.6495 15.08823672 17957,6917.93,95.439,541.269,538.322,0.0
53859.0,STARLINK-4790,PAYLOAD,2023-01-08 22:11:42,15.08838157,0.0002073,53.2194,77.3254,44.7805,315.3355,0.00023456,3.447e-05,0.0,0 STARLINK-4790,1 53859U 22114AT  23008.92479303  .00003447  00000-0  23456-3 0  9991,2 53859  53.2194  77.3254 0002073  44.7805 315.3355 15.08838157 18565,6917.886,95.438,541.185,538.317,0.0
53859.0,STARLINK-4790,PAYLOAD,2023-01-09 04:33:14,15.08853062,0.0002177,53.2185,76.1354,55.8905,304.2294,0.00012041,1.629e-05,0.0,0 STARLINK-4790,1 53859U 22114AT  23009.18974557  .00001629  00000-0  12041-3 0  9999,2 53859  53.2185  76.1354 0002177  55.8905 304.2294 15.08853062 18068,6917.84,95.437,541.211,538.1990000000002,0.0
53859.0,STARLINK-4790,PAYLOAD,2023-01-09 14:05:33,15.08846933,0.0002017,53.2174,74.3522,37.9471,322.1663,0.00029171,4.358e-05,0.0,0 STARLINK-4790,1 53859U 22114AT  23009.58718998  .00004358  00000-0  29171-3 0  9992,2 53859  53.2174  74.3522 0002017  37.9471 322.1663 15.08846933 18669,6917.859,95.437,541.12,538.3290000000002,0.0
53859.0,STARLINK-4790,PAYLOAD,2023-01-10 09:10:11,15.08842559,0.0002056,53.2171,70.7823,40.5552,319.5593,7.8455e-05,9.61e-06,0.0,0 STARLINK-4790,1 53859U 22114AT  23010.38207368  .00000961  00000-0  78455-4 0  9992,2 53859  53.2171  70.7823 0002056  40.5552 319.5593 15.08842559 18249,6917.873000000001,95.437,541.16,538.315,0.0
53859.0,STARLINK-4790,PAYLOAD,2023-01-10 10:45:34,15.08830633,0.000216,53.2183,70.4862,42.9437,317.1724,-0.00010945,-2.029e-05,0.0,0 STARLINK-4790,1 53859U 22114AT  23010.44832044 -.00002029  00000-0 -10945-3 0  9992,2 53859  53.2183  70.4862 0002160  42.9437 317.1724 15.08830633 18257,6917.9090000000015,95.438,541.268,538.28,0.0
53859.0,STARLINK-4790,PAYLOAD,2023-01-11 13:47:07,15.08847853,0.0002083,53.2179,65.4302,37.2904,322.8233,6.1536e-05,6.91e-06,0.0,0 STARLINK-4790,1 53859U 22114AT  23011.57438897  .00000691  00000-0  61536-4 0  9999,2 53859  53.2179  65.4302 0002083  37.2904 322.8233 15.08847853 18424,6917.856,95.437,541.1619999999998,538.28,0.0
53859.0,STARLINK-4790,PAYLOAD,2023-01-11 20:08:39,15.08850295,0.0002178,53.2185,64.2412,40.8579,319.2576,0.00015512,2.182e-05,0.0,0 STARLINK-4790,1 53859U 22114AT  23011.83934529  .00002182  00000-0  15512-3 0  9990,2 53859  53.2185  64.2412 0002178  40.8579 319.2576 15.08850295 19002,6917.849,95.437,541.221,538.207,0.0
53859.0,STARLINK-4790,PAYLOAD,2023-01-12 19:59:27,15.08833825,0.0001801,53.2172,59.7829,37.7511,322.3607,-2.7077e-05,-7.19e-06,0.0,0 STARLINK-4790,1 53859U 22114AT  23012.83295365 -.00000719  00000-0 -27077-4 0  9995,2 53859  53.2172  59.7829 0001801  37.7511 322.3607 15.08833825 19158,6917.899,95.438,541.01,538.518,0.0
53859.0,STARLINK-4790,PAYLOAD,2023-01-12 23:10:14,15.08815288,0.0002066,53.2172,59.1864,46.4959,313.6204,-0.00037286,-6.213e-05,0.0,0 STARLINK-4790,1 53859U 22114AT  23012.96544449 -.00006213  00000-0 -37286-3 0  9996,2 53859  53.2172  59.1864 0002066  46.4959 313.6204 15.08815288 18639,6917.956,95.439,541.25,538.3919999999998,0.0
53859.0,STARLINK-4790,PAYLOAD,2023-01-13 10:17:56,15.08818432,0.0002105,53.2175,57.1055,46.4431,313.6736,-0.00023029,-3.949e-05,0.0,0 STARLINK-4790,1 53859U 22114AT  23013.42912924 -.00003949  00000-0 -23029-3 0  9998,2 53859  53.2175  57.1055 0002105  46.4431 313.6736 15.08818432 19243,6917.946,95.439,541.268,538.355,0.0
53859.0,STARLINK-4790,PAYLOAD,2023-01-13 19:50:15,15.08828036,0.0002031,53.2175,55.3216,49.5195,310.5974,-6.1595e-05,-1.268e-05,0.0,0 STARLINK-4790,1 53859U 22114AT  23013.82656915 -.00001268  00000-0 -61595-4 0  9990,2 53859  53.2175  55.3216 0002031  49.5195 310.5974 15.08828036 19309,6917.917,95.438,541.187,538.377,0.0
53859.0,STARLINK-4790,PAYLOAD,2023-01-14 08:33:20,15.08843307,0.0001896999999999,53.2173,52.943000000000005,48.5664,311.54900000000004,0.00071799,0.00011158,0.0,0 STARLINK-4790,1 53859U 22114AT  23014.35649115  .00011158  00000-0  71799-3 0  9996,2 53859  53.2173  52.9430 0001897  48.5664 311.5490 15.08843307 18847,6917.87,95.437,541.048,538.423,0.0
53859.0,STARLINK-4790,PAYLOAD,2023-01-14 22:51:49,15.08841116,0.0001803,53.2169,50.2662,58.5703,301.5465,0.0004721999999999,7.235e-05,0.0,0 STARLINK-4790,1 53859U 22114AT  23014.95265617  .00007235  00000-0  47220-3 0  9996,2 53859  53.2169  50.2662 0001803  58.5703 301.5465 15.08841116 18939,6917.877,95.437,540.989,538.495,0.0
53859.0,STARLINK-4790,PAYLOAD,2023-01-15 08:24:08,15.08841899,0.0001569,53.2176,48.4807,63.3484,296.7669,0.00040668,6.191e-05,0.0,0 STARLINK-4790,1 53859U 22114AT  23015.35009651  .00006191  00000-0  40668-3 0  9994,2 53859  53.2176  48.4807 0001569  63.3484 296.7669 15.08841899 19532,6917.875,95.437,540.825,538.654,0.0
53859.0,STARLINK-4790,PAYLOAD,2023-01-15 19:31:50,15.08852891,0.0001675,53.2175,46.3994,65.432,294.6847,0.00099821,0.0001564,0.0,0 STARLINK-4790,1 53859U 22114AT  23015.81377590  .00015640  00000-0  99821-3 0  9999,2 53859  53.2175  46.3994 0001675  65.4320 294.6847 15.08852891 19602,6917.840999999999,95.437,540.865,538.547,0.0
53859.0,STARLINK-4790,PAYLOAD,2023-01-16 06:39:31,15.08859829,0.0001675999999999,53.2178,44.3177,68.9366,291.1806,0.00086982,0.0001359,0.0,0 STARLINK-4790,1 53859U 22114AT  23016.27745266  .00013590  00000-0  86982-3 0  9995,2 53859  53.2178  44.3177 0001676  68.9366 291.1806 15.08859829 19138,6917.82,95.436,540.844,538.525,0.0
53859.0,STARLINK-4790,PAYLOAD,2023-01-16 11:25:40,15.08873747,0.0001688,53.2176,43.4246,77.76100000000001,282.3572,0.0011860999999999,0.00018657,0.0,0 STARLINK-4790,1 53859U 22114AT  23016.47616759  .00018657  00000-0  11861-2 0  9993,2 53859  53.2176  43.4246 0001688  77.7610 282.3572 15.08873747 19706,6917.776999999999,95.435,540.81,538.475,0.0
